{
  "norad_id": 63285,
  "name": "STARLINK-33662",
  "history": [
    {
      "epoch": "2026-03-28T20:09:59.412672Z",
      "apogee_km": 483.4165034318221,
      "perigee_km": 482.6031830850234,
      "latitude_deg": -4.750985380800818e-05,
      "longitude_deg": 4.7552517577673665,
      "height_km": 482.7145941873708,
      "semi_major_axis_km": 6861.146843258422,
      "eccentricity": 5.927e-05,
      "inclination_deg": 42.9987,
      "raan_deg": 133.5078,
      "arg_perigee_deg": 280.0691,
      "mean_anomaly_deg": 80.0093,
      "mean_motion_rev_day": 15.27593109
    },
    {
      "epoch": "2026-03-29T04:00:46.173312Z",
      "apogee_km": 483.30024848253106,
      "perigee_km": 482.7019572399622,
      "latitude_deg": 1.9713651927524455e-05,
      "longitude_deg": -115.11264953654653,
      "height_km": 482.9196084960568,
      "semi_major_axis_km": 6861.138102861247,
      "eccentricity": 4.36e-05,
      "inclination_deg": 42.9981,
      "raan_deg": 131.6569,
      "arg_perigee_deg": 241.4536,
      "mean_anomaly_deg": 118.6272,
      "mean_motion_rev_day": 15.27596028
    },
    {
      "epoch": "2026-03-30T03:33:07.098048Z",
      "apogee_km": 483.1494281780924,
      "perigee_km": 482.8667490004427,
      "latitude_deg": -2.9773844352016223e-05,
      "longitude_deg": -114.7029064844327,
      "height_km": 482.6662902672208,
      "semi_major_axis_km": 6861.145088589267,
      "eccentricity": 2.06e-05,
      "inclination_deg": 43.0004,
      "raan_deg": 126.1206,
      "arg_perigee_deg": 326.1528,
      "mean_anomaly_deg": 33.931,
      "mean_motion_rev_day": 15.27593695
    },
    {
      "epoch": "2026-03-30T03:33:07.098912Z",
      "apogee_km": 483.1497026238958,
      "perigee_km": 482.86647455463935,
      "latitude_deg": -2.801891177155455e-05,
      "longitude_deg": -114.70290822277927,
      "height_km": 482.6660623646986,
      "semi_major_axis_km": 6861.145088589267,
      "eccentricity": 2.064e-05,
      "inclination_deg": 43.0004,
      "raan_deg": 126.1206,
      "arg_perigee_deg": 326.1528,
      "mean_anomaly_deg": 33.931,
      "mean_motion_rev_day": 15.27593695
    },
    {
      "epoch": "2026-03-30T12:58:03.169344Z",
      "apogee_km": 484.0903624012526,
      "perigee_km": 481.9134602474669,
      "latitude_deg": 3.3786564561324653e-06,
      "longitude_deg": 101.46011498368414,
      "height_km": 482.81432540991796,
      "semi_major_axis_km": 6861.1389113243595,
      "eccentricity": 0.00015864,
      "inclination_deg": 43.0022,
      "raan_deg": 123.9039,
      "arg_perigee_deg": 268.1403,
      "mean_anomaly_deg": 91.9267,
      "mean_motion_rev_day": 15.27595758
    },
    {
      "epoch": "2026-03-30T19:14:40.314336Z",
      "apogee_km": 485.0035120095572,
      "perigee_km": 481.0494235030883,
      "latitude_deg": 3.4196345889304106e-05,
      "longitude_deg": 5.57419074197304,
      "height_km": 482.7873919805039,
      "semi_major_axis_km": 6861.1634677563225,
      "eccentricity": 0.00028815,
      "inclination_deg": 43.0056,
      "raan_deg": 122.4305,
      "arg_perigee_deg": 270.5065,
      "mean_anomaly_deg": 89.5457,
      "mean_motion_rev_day": 15.27587557
    },
    {
      "epoch": "2026-03-31T10:56:15.175680Z",
      "apogee_km": 485.0356229199697,
      "perigee_km": 481.1003101993492,
      "latitude_deg": 2.8034741256355584e-06,
      "longitude_deg": 125.83861322980611,
      "height_km": 483.05605287462924,
      "semi_major_axis_km": 6861.20496655966,
      "eccentricity": 0.00028678,
      "inclination_deg": 43.0051,
      "raan_deg": 118.7347,
      "arg_perigee_deg": 263.8796,
      "mean_anomaly_deg": 96.1729,
      "mean_motion_rev_day": 15.27573698
    },
    {
      "epoch": "2026-04-01T12:02:46.438368Z",
      "apogee_km": 484.4417708675146,
      "perigee_km": 481.5765562296174,
      "latitude_deg": -9.089020899640441e-06,
      "longitude_deg": 102.2660637179212,
      "height_km": 483.209597324876,
      "semi_major_axis_km": 6861.146163548566,
      "eccentricity": 0.0002088,
      "inclination_deg": 43.0035,
      "raan_deg": 112.8236,
      "arg_perigee_deg": 252.8293,
      "mean_anomaly_deg": 107.233,
      "mean_motion_rev_day": 15.27593336
    },
    {
      "epoch": "2026-04-02T17:51:44.305056Z",
      "apogee_km": 483.15247470989925,
      "perigee_km": 482.84509582672035,
      "latitude_deg": -4.840590277319957e-05,
      "longitude_deg": 6.783009075439067,
      "height_km": 482.62507548512616,
      "semi_major_axis_km": 6861.1357852683095,
      "eccentricity": 2.24e-05,
      "inclination_deg": 43.0032,
      "raan_deg": 105.8062,
      "arg_perigee_deg": 346.6762,
      "mean_anomaly_deg": 13.4083,
      "mean_motion_rev_day": 15.27596802
    }
  ]
}